[{"OBJECT_NAME":"NUSHSAT1","OBJECT_ID":"2025-052B","EPOCH":"2026-03-09T15:31:41.225952","MEAN_MOTION":15.31903202,"ECCENTRICITY":0.0005501,"INCLINATION":97.4095,"RA_OF_ASC_NODE":325.7239,"ARG_OF_PERICENTER":84.7512,"MEAN_ANOMALY":275.4357,"EPHEMERIS_TYPE":0,"CLASSIFICATION_TYPE":"U","NORAD_CAT_ID":63211,"ELEMENT_SET_NO":999,"REV_AT_EPOCH":5488,"BSTAR":0.00074857,"MEAN_MOTION_DOT":0.00023034,"MEAN_MOTION_DDOT":0},{"OBJECT_NAME":"STARLINK-33894","OBJECT_ID":"2025-087A","EPOCH":"2026-03-09T16:44:22.265952","MEAN_MOTION":15.30198518,"ECCENTRICITY":5.548e-5,"INCLINATION":53.1586,"RA_OF_ASC_NODE":219.321,"ARG_OF_PERICENTER":28.0577,"MEAN_ANOMALY":332.0454,"EPHEMERIS_TYPE":0,"CLASSIFICATION_TYPE":"U","NORAD_CAT_ID":63697,"ELEMENT_SET_NO":999,"REV_AT_EPOCH":4920,"BSTAR":0.00097147908,"MEAN_MOTION_DOT":0.00028522,"MEAN_MOTION_DDOT":0}]
